{"type": "FeatureCollection", "features": [ {"type": "Feature", "properties": {"norad_id": 43648, "name": "BEIDOU-3 M15 (C34)", "group": "gnss", "lat": -20.638525320439054, "lon": 141.7877480498833, "alt_km": 21541.9398727923, "timestamp": "2025-12-25T11:37:44.678903+00:00", "meta": {"OBJECT_NAME": "BEIDOU-3 M15 (C34)", "OBJECT_ID": "2018-078B", "EPOCH": "2025-12-24T02:29:34.317888", "MEAN_MOTION": 1.86232361, "ECCENTRICITY": 0.0004049, "INCLINATION": 54.2473, "RA_OF_ASC_NODE": 306.125, "ARG_OF_PERICENTER": 19.767, "MEAN_ANOMALY": 340.256, "EPHEMERIS_TYPE": 0, "CLASSIFICATION_TYPE": "U", "NORAD_CAT_ID": 43648, "ELEMENT_SET_NO": 999, "REV_AT_EPOCH": 4891, "BSTAR": 0, "MEAN_MOTION_DOT": -5.2e-07, "MEAN_MOTION_DDOT": 0}, "tle": {"line1": "1 43648U 18078B   25358.10386942 -.00000052  00000+0  00000+0 0  9991", "line2": "2 43648  54.2473 306.1250 0004049  19.7670 340.2560  1.86232361 48910"}}, "geometry": {"type": "Point", "coordinates": [141.7877480498833, -20.638525320439054]}}, {"type": "Feature", "properties": {"norad_id": 43683, "name": "BEIDOU-3 G1 (C59)", "group": "gnss", "lat": -2.122565196553905, "lon": 48.632405790022055, "alt_km": 35788.68584624201, "timestamp": "2025-12-25T11:37:44.678915+00:00", "meta": {"OBJECT_NAME": "BEIDOU-3 G1 (C59)", "OBJECT_ID": "2018-085A", "EPOCH": "2025-12-25T04:34:38.772192", "MEAN_MOTION": 1.00266449, "ECCENTRICITY": 0.000144, "INCLINATION": 2.637, "RA_OF_ASC_NODE": 102.5973, "ARG_OF_PERICENTER": 43.7748, "MEAN_ANOMALY": 156.1931, "EPHEMERIS_TYPE": 0, "CLASSIFICATION_TYPE": "U", "NORAD_CAT_ID": 43683, "ELEMENT_SET_NO": 999, "REV_AT_EPOCH": 2631, "BSTAR": 0, "MEAN_MOTION_DOT": -2.58e-06, "MEAN_MOTION_DDOT": 0}, "tle": {"line1": "1 43683U 18085A   25359.19072653 -.00000258  00000+0  00000+0 0  9997", "line2": "2 43683   2.6370 102.5973 0001440  43.7748 156.1931  1.00266449 26313"}}, "geometry": {"type": "Point", "coordinates": [48.632405790022055, -2.122565196553905]}}, {"type": "Feature", "properties": {"norad_id": 43687, "name": "COSMOS 2529 (757)", "group": "gnss", "lat": -47.040196303314495, "lon": 167.2939045333411, "alt_km": 19124.60342686464, "timestamp": "2025-12-25T11:37:44.678928+00:00", "meta": {"OBJECT_NAME": "COSMOS 2529 (757)", "OBJECT_ID": "2018-086A", "EPOCH": "2025-12-23T05:01:04.327104", "MEAN_MOTION": 2.13102131, "ECCENTRICITY": 0.0006897, "INCLINATION": 64.2927, "RA_OF_ASC_NODE": 198.5346, "ARG_OF_PERICENTER": 253.659, "MEAN_ANOMALY": 106.3281, "EPHEMERIS_TYPE": 0, "CLASSIFICATION_TYPE": "U", "NORAD_CAT_ID": 43687, "ELEMENT_SET_NO": 999, "REV_AT_EPOCH": 5553, "BSTAR": 0, "MEAN_MOTION_DOT": 9.5e-07, "MEAN_MOTION_DDOT": 0}, "tle": {"line1": "1 43687U 18086A   25357.20907786  .00000095  00000+0  00000+0 0  9994", "line2": "2 43687  64.2927 198.5346 0006897 253.6590 106.3281  2.13102131 55539"}}, "geometry": {"type": "Point", "coordinates": [167.2939045333411, -47.040196303314495]}}, {"type": "Feature", "properties": {"norad_id": 43706, "name": "BEIDOU-3 M17 (C36)", "group": "gnss", "lat": 53.11486580198277, "lon": -66.18779741449478, "alt_km": 21536.918520559066, "timestamp": "2025-12-25T11:37:44.678942+00:00", "meta": {"OBJECT_NAME": "BEIDOU-3 M17 (C36)", "OBJECT_ID": "2018-093A", "EPOCH": "2025-12-25T01:59:52.471680", "MEAN_MOTION": 1.86228331, "ECCENTRICITY": 0.0006014, "INCLINATION": 54.1734, "RA_OF_ASC_NODE": 188.2028, "ARG_OF_PERICENTER": 307.2012, "MEAN_ANOMALY": 243.0238, "EPHEMERIS_TYPE": 0, "CLASSIFICATION_TYPE": "U", "NORAD_CAT_ID": 43706, "ELEMENT_SET_NO": 999, "REV_AT_EPOCH": 4829, "BSTAR": 0, "MEAN_MOTION_DOT": 1.09e-06, "MEAN_MOTION_DDOT": 0}, "tle": {"line1": "1 43706U 18093A   25359.08324620  .00000109  00000+0  00000+0 0  9998", "line2": "2 43706  54.1734 188.2028 0006014 307.2012 243.0238  1.86228331 48290"}}, "geometry": {"type": "Point", "coordinates": [-66.18779741449478, 53.11486580198277]}}, {"type": "Feature", "properties": {"norad_id": 43707, "name": "BEIDOU-3 M18 (C37)", "group": "gnss", "lat": -9.761535788816625, "lon": 15.325611290749697, "alt_km": 21546.305899834904, "timestamp": "2025-12-25T11:37:44.678953+00:00", "meta": {"OBJECT_NAME": "BEIDOU-3 M18 (C37)", "OBJECT_ID": "2018-093B", "EPOCH": "2025-12-23T01:12:21.238848", "MEAN_MOTION": 1.86226616, "ECCENTRICITY": 0.0006147, "INCLINATION": 54.1741, "RA_OF_ASC_NODE": 188.2636, "ARG_OF_PERICENTER": 354.1254, "MEAN_ANOMALY": 5.9078, "EPHEMERIS_TYPE": 0, "CLASSIFICATION_TYPE": "U", "NORAD_CAT_ID": 43707, "ELEMENT_SET_NO": 999, "REV_AT_EPOCH": 4825, "BSTAR": 0, "MEAN_MOTION_DOT": 9.6e-07, "MEAN_MOTION_DDOT": 0}, "tle": {"line1": "1 43707U 18093B   25357.05024582  .00000096  00000+0  00000+0 0  9993", "line2": "2 43707  54.1741 188.2636 0006147 354.1254   5.9078  1.86226616 48257"}}, "geometry": {"type": "Point", "coordinates": [15.325611290749697, -9.761535788816625]}}, {"type": "Feature", "properties": {"norad_id": 43873, "name": "GPS BIII-1  (PRN 04)", "group": "gnss", "lat": -11.865603002806278, "lon": 90.77430338508334, "alt_km": 20271.439106514583, "timestamp": "2025-12-25T11:37:44.678964+00:00", "meta": {"OBJECT_NAME": "GPS BIII-1  (PRN 04)", "OBJECT_ID": "2018-109A", "EPOCH": "2025-12-24T12:17:00.757248", "MEAN_MOTION": 2.00553945, "ECCENTRICITY": 0.00376159, "INCLINATION": 55.5731, "RA_OF_ASC_NODE": 99.0827, "ARG_OF_PERICENTER": 195.5593, "MEAN_ANOMALY": 167.4766, "EPHEMERIS_TYPE": 0, "CLASSIFICATION_TYPE": "U", "NORAD_CAT_ID": 43873, "ELEMENT_SET_NO": 999, "REV_AT_EPOCH": 5157, "BSTAR": 0, "MEAN_MOTION_DOT": 1.7e-07, "MEAN_MOTION_DDOT": 0}, "tle": {"line1": "1 43873U 18109A   25358.51181432  .00000017  00000+0  00000+0 0  9998", "line2": "2 43873  55.5731  99.0827 0037615 195.5593 167.4766  2.00553945 51575"}}, "geometry": {"type": "Point", "coordinates": [90.77430338508334, -11.865603002806278]}}, {"type": "Feature", "properties": {"norad_id": 44231, "name": "BEIDOU-2 G8 (C01)", "group": "gnss", "lat": -0.6064784415412248, "lon": 53.290961861294, "alt_km": 35779.154508683576, "timestamp": "2025-12-25T11:37:44.678975+00:00", "meta": {"OBJECT_NAME": "BEIDOU-2 G8 (C01)", "OBJECT_ID": "2019-027A", "EPOCH": "2025-12-25T00:03:30.600000", "MEAN_MOTION": 1.00274531, "ECCENTRICITY": 0.0008295, "INCLINATION": 1.691, "RA_OF_ASC_NODE": 74.7363, "ARG_OF_PERICENTER": 259.0794, "MEAN_ANOMALY": 265.3408, "EPHEMERIS_TYPE": 0, "CLASSIFICATION_TYPE": "U", "NORAD_CAT_ID": 44231, "ELEMENT_SET_NO": 999, "REV_AT_EPOCH": 2433, "BSTAR": 0, "MEAN_MOTION_DOT": -2.26e-06, "MEAN_MOTION_DDOT": 0}, "tle": {"line1": "1 44231U 19027A   25359.00243750 -.00000226  00000+0  00000+0 0  9997", "line2": "2 44231   1.6910  74.7363 0008295 259.0794 265.3408  1.00274531 24336"}}, "geometry": {"type": "Point", "coordinates": [53.290961861294, -0.6064784415412248]}}, {"type": "Feature", "properties": {"norad_id": 44299, "name": "COSMOS 2534 (758)", "group": "gnss", "lat": 62.614771650636605, "lon": -93.51613617765291, "alt_km": 19143.23379220094, "timestamp": "2025-12-25T11:37:44.678987+00:00", "meta": {"OBJECT_NAME": "COSMOS 2534 (758)", "OBJECT_ID": "2019-030A", "EPOCH": "2025-12-25T02:45:29.854368", "MEAN_MOTION": 2.13102173, "ECCENTRICITY": 0.0008619, "INCLINATION": 64.3664, "RA_OF_ASC_NODE": 198.4757, "ARG_OF_PERICENTER": 283.7292, "MEAN_ANOMALY": 232.7894, "EPHEMERIS_TYPE": 0, "CLASSIFICATION_TYPE": "U", "NORAD_CAT_ID": 44299, "ELEMENT_SET_NO": 999, "REV_AT_EPOCH": 5121, "BSTAR": 0, "MEAN_MOTION_DOT": 1.03e-06, "MEAN_MOTION_DDOT": 0}, "tle": {"line1": "1 44299U 19030A   25359.11492887  .00000103  00000+0  00000+0 0  9997", "line2": "2 44299  64.3664 198.4757 0008619 283.7292 232.7894  2.13102173 51211"}}, "geometry": {"type": "Point", "coordinates": [-93.51613617765291, 62.614771650636605]}}, {"type": "Feature", "properties": {"norad_id": 44337, "name": "BEIDOU-3 IGSO-2 (C39)", "group": "gnss", "lat": -37.506944206109715, "lon": 12.62146564327727, "alt_km": 35648.269866958144, "timestamp": "2025-12-25T11:37:44.679000+00:00", "meta": {"OBJECT_NAME": "BEIDOU-3 IGSO-2 (C39)", "OBJECT_ID": "2019-035A", "EPOCH": "2025-12-24T20:30:50.966784", "MEAN_MOTION": 1.00267539, "ECCENTRICITY": 0.00378522, "INCLINATION": 55.2292, "RA_OF_ASC_NODE": 160.3949, "ARG_OF_PERICENTER": 202.5754, "MEAN_ANOMALY": 157.6854, "EPHEMERIS_TYPE": 0, "CLASSIFICATION_TYPE": "U", "NORAD_CAT_ID": 44337, "ELEMENT_SET_NO": 999, "REV_AT_EPOCH": 2392, "BSTAR": 0, "MEAN_MOTION_DOT": -7e-07, "MEAN_MOTION_DDOT": 0}, "tle": {"line1": "1 44337U 19035A   25358.85475656 -.00000070  00000+0  00000+0 0  9994", "line2": "2 44337  55.2292 160.3949 0037852 202.5754 157.6854  1.00267539 23925"}}, "geometry": {"type": "Point", "coordinates": [12.62146564327727, -37.506944206109715]}}, {"type": "Feature", "properties": {"norad_id": 44506, "name": "GPS BIII-2  (PRN 18)", "group": "gnss", "lat": -47.605366695290186, "lon": -153.63856803288277, "alt_km": 20078.082944801234, "timestamp": "2025-12-25T11:37:44.679012+00:00", "meta": {"OBJECT_NAME": "GPS BIII-2  (PRN 18)", "OBJECT_ID": "2019-056A", "EPOCH": "2025-12-25T04:27:47.883168", "MEAN_MOTION": 2.00566525, "ECCENTRICITY": 0.0057768, "INCLINATION": 55.7168, "RA_OF_ASC_NODE": 338.0593, "ARG_OF_PERICENTER": 198.6492, "MEAN_ANOMALY": 188.635, "EPHEMERIS_TYPE": 0, "CLASSIFICATION_TYPE": "U", "NORAD_CAT_ID": 44506, "ELEMENT_SET_NO": 999, "REV_AT_EPOCH": 4658, "BSTAR": 0, "MEAN_MOTION_DOT": -5.9e-07, "MEAN_MOTION_DDOT": 0}, "tle": {"line1": "1 44506U 19056A   25359.18597087 -.00000059  00000+0  00000+0 0  9992", "line2": "2 44506  55.7168 338.0593 0057768 198.6492 188.6350  2.00566525 46581"}}, "geometry": {"type": "Point", "coordinates": [-153.63856803288277, -47.605366695290186]}}]}